{
  "type": "FeatureCollection",
  "features": [
    {
      "type": "Feature",
      "properties": {
        "norad_id": 31307,
        "name": "GALAXY 17 (G-17)",
        "group": "intelsat",
        "lat": -2.5388305702761635,
        "lon": -9.662633842820048,
        "alt_km": 35788.426245742485,
        "timestamp": "2025-12-25T22:42:16.664100+00:00",
        "meta_object_name": "GALAXY 17 (G-17)",
        "meta_object_id": "2007-016B",
        "meta_epoch": "2025-12-25T03:12:43.293888",
        "meta_mean_motion": 1.00272001,
        "meta_eccentricity": 0.00055995,
        "meta_inclination": 2.5292,
        "meta_ra_of_asc_node": 82.144,
        "meta_arg_of_pericenter": 173.1057,
        "meta_mean_anomaly": 161.8394,
        "meta_ephemeris_type": 0,
        "meta_classification_type": "U",
        "meta_norad_cat_id": 31307,
        "meta_element_set_no": 999,
        "meta_rev_at_epoch": 6805,
        "meta_bstar": 0,
        "meta_mean_motion_dot": -1.86e-06,
        "meta_mean_motion_ddot": 0,
        "tle_line1": "1 31307U 07016B   25359.13383442 -.00000186  00000+0  00000+0 0  9994",
        "tle_line2": "2 31307   2.5292  82.1440 0005599 173.1057 161.8394  1.00272001 68051"
      },
      "geometry": {
        "type": "Point",
        "coordinates": [
          -9.662633842820048,
          -2.5388305702761635
        ]
      }
    },
    {
      "type": "Feature",
      "properties": {
        "norad_id": 31862,
        "name": "DIRECTV 10",
        "group": "intelsat",
        "lat": -0.0041946802174454515,
        "lon": -27.49802830878972,
        "alt_km": 35783.829367154365,
        "timestamp": "2025-12-25T22:42:16.664112+00:00",
        "meta_object_name": "DIRECTV 10",
        "meta_object_id": "2007-032A",
        "meta_epoch": "2025-12-25T09:09:15.831072",
        "meta_mean_motion": 1.00280696,
        "meta_eccentricity": 7.66e-05,
        "meta_inclination": 0.0126,
        "meta_ra_of_asc_node": 126.575,
        "meta_arg_of_pericenter": 111.4706,
        "meta_mean_anomaly": 250.6263,
        "meta_ephemeris_type": 0,
        "meta_classification_type": "U",
        "meta_norad_cat_id": 31862,
        "meta_element_set_no": 999,
        "meta_rev_at_epoch": 4385,
        "meta_bstar": 0,
        "meta_mean_motion_dot": -8.3e-07,
        "meta_mean_motion_ddot": 0,
        "tle_line1": "1 31862U 07032A   25359.38143323 -.00000083  00000+0  00000+0 0  9993",
        "tle_line2": "2 31862   0.0126 126.5750 0000766 111.4706 250.6263  1.00280696 43852"
      },
      "geometry": {
        "type": "Point",
        "coordinates": [
          -27.49802830878972,
          -0.0041946802174454515
        ]
      }
    },
    {
      "type": "Feature",
      "properties": {
        "norad_id": 32253,
        "name": "INTELSAT 11 (IS-11)",
        "group": "intelsat",
        "lat": 0.9438837909307171,
        "lon": -117.07054410634665,
        "alt_km": 36094.88020815389,
        "timestamp": "2025-12-25T22:42:16.664123+00:00",
        "meta_object_name": "INTELSAT 11 (IS-11)",
        "meta_object_id": "2007-044B",
        "meta_epoch": "2025-12-25T13:02:38.686848",
        "meta_mean_motion": 0.99053085,
        "meta_eccentricity": 0.0008616,
        "meta_inclination": 3.1116,
        "meta_ra_of_asc_node": 80.8337,
        "meta_arg_of_pericenter": 171.4467,
        "meta_mean_anomaly": 207.1053,
        "meta_ephemeris_type": 0,
        "meta_classification_type": "U",
        "meta_norad_cat_id": 32253,
        "meta_element_set_no": 999,
        "meta_rev_at_epoch": 6673,
        "meta_bstar": 0,
        "meta_mean_motion_dot": -1.97e-06,
        "meta_mean_motion_ddot": 0,
        "tle_line1": "1 32253U 07044B   25359.54350332 -.00000197  00000+0  00000+0 0  9995",
        "tle_line2": "2 32253   3.1116  80.8337 0008616 171.4467 207.1053  0.99053085 66738"
      },
      "geometry": {
        "type": "Point",
        "coordinates": [
          -117.07054410634665,
          0.9438837909307171
        ]
      }
    },
    {
      "type": "Feature",
      "properties": {
        "norad_id": 32388,
        "name": "HORIZONS-2",
        "group": "intelsat",
        "lat": -2.1341272070492447,
        "lon": 1.5188887411348555,
        "alt_km": 35784.17050256479,
        "timestamp": "2025-12-25T22:42:16.664135+00:00",
        "meta_object_name": "HORIZONS-2",
        "meta_object_id": "2007-063B",
        "meta_epoch": "2025-12-25T09:17:22.555104",
        "meta_mean_motion": 1.0026947,
        "meta_eccentricity": 0.0004798,
        "meta_inclination": 2.1525,
        "meta_ra_of_asc_node": 82.8237,
        "meta_arg_of_pericenter": 196.873,
        "meta_mean_anomaly": 239.9945,
        "meta_ephemeris_type": 0,
        "meta_classification_type": "U",
        "meta_norad_cat_id": 32388,
        "meta_element_set_no": 999,
        "meta_rev_at_epoch": 6607,
        "meta_bstar": 0,
        "meta_mean_motion_dot": -2.33e-06,
        "meta_mean_motion_ddot": 0,
        "tle_line1": "1 32388U 07063B   25359.38706661 -.00000233  00000+0  00000+0 0  9998",
        "tle_line2": "2 32388   2.1525  82.8237 0004798 196.8730 239.9945  1.00269470 66072"
      },
      "geometry": {
        "type": "Point",
        "coordinates": [
          1.5188887411348555,
          -2.1341272070492447
        ]
      }
    },
    {
      "type": "Feature",
      "properties": {
        "norad_id": 32729,
        "name": "DIRECTV 11",
        "group": "intelsat",
        "lat": 0.024550138898527352,
        "lon": -23.969893345635775,
        "alt_km": 35791.78558432293,
        "timestamp": "2025-12-25T22:42:16.664146+00:00",
        "meta_object_name": "DIRECTV 11",
        "meta_object_id": "2008-013A",
        "meta_epoch": "2025-12-24T22:53:59.758368",
        "meta_mean_motion": 1.00260442,
        "meta_eccentricity": 0.0001047,
        "meta_inclination": 0.0475,
        "meta_ra_of_asc_node": 199.7105,
        "meta_arg_of_pericenter": 11.4593,
        "meta_mean_anomaly": 126.8496,
        "meta_ephemeris_type": 0,
        "meta_classification_type": "U",
        "meta_norad_cat_id": 32729,
        "meta_element_set_no": 999,
        "meta_rev_at_epoch": 4384,
        "meta_bstar": 0,
        "meta_mean_motion_dot": -1.03e-06,
        "meta_mean_motion_ddot": 0,
        "tle_line1": "1 32729U 08013A   25358.95416387 -.00000103  00000+0  00000+0 0  9994",
        "tle_line2": "2 32729   0.0475 199.7105 0001047  11.4593 126.8496  1.00260442 43842"
      },
      "geometry": {
        "type": "Point",
        "coordinates": [
          -23.969893345635775,
          0.024550138898527352
        ]
      }
    },
    {
      "type": "Feature",
      "properties": {
        "norad_id": 32951,
        "name": "GALAXY 18 (G-18)",
        "group": "intelsat",
        "lat": -0.017061767064274178,
        "lon": -47.724973853976245,
        "alt_km": 35774.93585375382,
        "timestamp": "2025-12-25T22:42:16.664158+00:00",
        "meta_object_name": "GALAXY 18 (G-18)",
        "meta_object_id": "2008-024A",
        "meta_epoch": "2025-12-25T12:28:53.031072",
        "meta_mean_motion": 1.00272109,
        "meta_eccentricity": 0.0003072,
        "meta_inclination": 0.018,
        "meta_ra_of_asc_node": 328.2801,
        "meta_arg_of_pericenter": 312.0442,
        "meta_mean_anomaly": 238.17,
        "meta_ephemeris_type": 0,
        "meta_classification_type": "U",
        "meta_norad_cat_id": 32951,
        "meta_element_set_no": 999,
        "meta_rev_at_epoch": 4411,
        "meta_bstar": 0,
        "meta_mean_motion_dot": 4.6e-07,
        "meta_mean_motion_ddot": 0,
        "tle_line1": "1 32951U 08024A   25359.52005823  .00000046  00000+0  00000+0 0  9991",
        "tle_line2": "2 32951   0.0180 328.2801 0003072 312.0442 238.1700  1.00272109 44116"
      },
      "geometry": {
        "type": "Point",
        "coordinates": [
          -47.724973853976245,
          -0.017061767064274178
        ]
      }
    },
    {
      "type": "Feature",
      "properties": {
        "norad_id": 33153,
        "name": "INTELSAT 25 (IS-25)",
        "group": "intelsat",
        "lat": -1.4036105003096842,
        "lon": 43.83247266837773,
        "alt_km": 35800.1651669046,
        "timestamp": "2025-12-25T22:42:16.664170+00:00",
        "meta_object_name": "INTELSAT 25 (IS-25)",
        "meta_object_id": "2008-034A",
        "meta_epoch": "2025-12-25T09:29:36.384000",
        "meta_mean_motion": 1.0027183,
        "meta_eccentricity": 0.0004941,
        "meta_inclination": 2.2584,
        "meta_ra_of_asc_node": 82.5122,
        "meta_arg_of_pericenter": 189.7179,
        "meta_mean_anomaly": 292.833,
        "meta_ephemeris_type": 0,
        "meta_classification_type": "U",
        "meta_norad_cat_id": 33153,
        "meta_element_set_no": 999,
        "meta_rev_at_epoch": 6395,
        "meta_bstar": 0,
        "meta_mean_motion_dot": -2.03e-06,
        "meta_mean_motion_ddot": 0,
        "tle_line1": "1 33153U 08034A   25359.39556000 -.00000203  00000+0  00000+0 0  9996",
        "tle_line2": "2 33153   2.2584  82.5122 0004941 189.7179 292.8330  1.00271830 63950"
      },
      "geometry": {
        "type": "Point",
        "coordinates": [
          43.83247266837773,
          -1.4036105003096842
        ]
      }
    }
  ]
}